{"fetched_at":"2026-03-30T13:17:50Z","count":15418,"tles":[{"name":"STARLINK-35418","line1":"1 65879U 25223AB  26087.71749014  .00022805  00000+0  77941-3 0  9992","line2":"2 65879  53.1592 206.1567 0001133  89.6804 270.4326 15.30213816 27117","category":"Starlink"}]}